{
  "type": "FeatureCollection",
  "features": [
    {
      "type": "Feature",
      "properties": {
        "norad_id": 66569,
        "name": "STARLINK-35835",
        "group": "last-30-days",
        "lat": 41.266906117123675,
        "lon": 149.32047047597987,
        "alt_km": 406.0412303783478,
        "timestamp": "2025-12-19T22:41:51.094580+00:00",
        "meta_object_name": "STARLINK-35835",
        "meta_object_id": "2025-268N",
        "meta_epoch": "2025-12-19T14:38:53.453760",
        "meta_mean_motion": 15.51068809,
        "meta_eccentricity": 0.000157,
        "meta_inclination": 43.0021,
        "meta_ra_of_asc_node": 80.9616,
        "meta_arg_of_pericenter": 180.5459,
        "meta_mean_anomaly": 179.5399,
        "meta_ephemeris_type": 0,
        "meta_classification_type": "U",
        "meta_norad_cat_id": 66569,
        "meta_element_set_no": 999,
        "meta_rev_at_epoch": 569,
        "meta_bstar": 0.01158,
        "meta_mean_motion_dot": 0.0075028,
        "meta_mean_motion_ddot": 0,
        "tle_line1": "1 66569U 25268N   25353.61034090  .00750280  00000+0  11580-1 0  9993",
        "tle_line2": "2 66569  43.0021  80.9616 0001570 180.5459 179.5399 15.51068809  5695"
      },
      "geometry": {
        "type": "Point",
        "coordinates": [
          149.32047047597987,
          41.266906117123675
        ]
      }
    },
    {
      "type": "Feature",
      "properties": {
        "norad_id": 66570,
        "name": "STARLINK-35834",
        "group": "last-30-days",
        "lat": 41.687672706442456,
        "lon": 151.85435684835122,
        "alt_km": 406.8917776449798,
        "timestamp": "2025-12-19T22:41:51.094590+00:00",
        "meta_object_name": "STARLINK-35834",
        "meta_object_id": "2025-268P",
        "meta_epoch": "2025-12-19T14:38:22.069824",
        "meta_mean_motion": 15.5108495,
        "meta_eccentricity": 0.0001238,
        "meta_inclination": 43.0034,
        "meta_ra_of_asc_node": 80.9577,
        "meta_arg_of_pericenter": 245.0702,
        "meta_mean_anomaly": 115.0029,
        "meta_ephemeris_type": 0,
        "meta_classification_type": "U",
        "meta_norad_cat_id": 66570,
        "meta_element_set_no": 999,
        "meta_rev_at_epoch": 569,
        "meta_bstar": 0.0072465,
        "meta_mean_motion_dot": 0.00458871,
        "meta_mean_motion_ddot": 0,
        "tle_line1": "1 66570U 25268P   25353.60997766  .00458871  00000+0  72465-2 0  9993",
        "tle_line2": "2 66570  43.0034  80.9577 0001238 245.0702 115.0029 15.51084950  5696"
      },
      "geometry": {
        "type": "Point",
        "coordinates": [
          151.85435684835122,
          41.687672706442456
        ]
      }
    },
    {
      "type": "Feature",
      "properties": {
        "norad_id": 66571,
        "name": "STARLINK-35836",
        "group": "last-30-days",
        "lat": 41.930508389842814,
        "lon": 153.56234324267723,
        "alt_km": 403.0000460703204,
        "timestamp": "2025-12-19T22:41:51.094600+00:00",
        "meta_object_name": "STARLINK-35836",
        "meta_object_id": "2025-268Q",
        "meta_epoch": "2025-12-19T14:37:55.468992",
        "meta_mean_motion": 15.50787468,
        "meta_eccentricity": 0.0007078,
        "meta_inclination": 42.9979,
        "meta_ra_of_asc_node": 80.9557,
        "meta_arg_of_pericenter": 94.082,
        "meta_mean_anomaly": 266.085,
        "meta_ephemeris_type": 0,
        "meta_classification_type": "U",
        "meta_norad_cat_id": 66571,
        "meta_element_set_no": 999,
        "meta_rev_at_epoch": 569,
        "meta_bstar": 0.001669,
        "meta_mean_motion_dot": 0.00099643,
        "meta_mean_motion_ddot": 0,
        "tle_line1": "1 66571U 25268Q   25353.60966978  .00099643  00000+0  16690-2 0  9991",
        "tle_line2": "2 66571  42.9979  80.9557 0007078  94.0820 266.0850 15.50787468  5694"
      },
      "geometry": {
        "type": "Point",
        "coordinates": [
          153.56234324267723,
          41.930508389842814
        ]
      }
    },
    {
      "type": "Feature",
      "properties": {
        "norad_id": 66572,
        "name": "STARLINK-35870",
        "group": "last-30-days",
        "lat": 42.28660765240342,
        "lon": 156.41871638409881,
        "alt_km": 403.9114620136461,
        "timestamp": "2025-12-19T22:41:51.094611+00:00",
        "meta_object_name": "STARLINK-35870",
        "meta_object_id": "2025-268R",
        "meta_epoch": "2025-12-19T14:37:25.234176",
        "meta_mean_motion": 15.50965919,
        "meta_eccentricity": 0.0004838,
        "meta_inclination": 42.9991,
        "meta_ra_of_asc_node": 80.9528,
        "meta_arg_of_pericenter": 97.5171,
        "meta_mean_anomaly": 262.6239,
        "meta_ephemeris_type": 0,
        "meta_classification_type": "U",
        "meta_norad_cat_id": 66572,
        "meta_element_set_no": 999,
        "meta_rev_at_epoch": 569,
        "meta_bstar": 0.0015119,
        "meta_mean_motion_dot": 0.00090663,
        "meta_mean_motion_ddot": 0,
        "tle_line1": "1 66572U 25268R   25353.60931984  .00090663  00000+0  15119-2 0  9999",
        "tle_line2": "2 66572  42.9991  80.9528 0004838  97.5171 262.6239 15.50965919  5697"
      },
      "geometry": {
        "type": "Point",
        "coordinates": [
          156.41871638409881,
          42.28660765240342
        ]
      }
    },
    {
      "type": "Feature",
      "properties": {
        "norad_id": 66573,
        "name": "STARLINK-35650",
        "group": "last-30-days",
        "lat": 42.5392893762746,
        "lon": 158.93228464969405,
        "alt_km": 404.4303108399772,
        "timestamp": "2025-12-19T22:41:51.094621+00:00",
        "meta_object_name": "STARLINK-35650",
        "meta_object_id": "2025-268S",
        "meta_epoch": "2025-12-19T14:36:55.904832",
        "meta_mean_motion": 15.50859773,
        "meta_eccentricity": 0.0003722,
        "meta_inclination": 43.0011,
        "meta_ra_of_asc_node": 80.9506,
        "meta_arg_of_pericenter": 102.75,
        "meta_mean_anomaly": 257.3776,
        "meta_ephemeris_type": 0,
        "meta_classification_type": "U",
        "meta_norad_cat_id": 66573,
        "meta_element_set_no": 999,
        "meta_rev_at_epoch": 569,
        "meta_bstar": 0.0063018,
        "meta_mean_motion_dot": 0.00392409,
        "meta_mean_motion_ddot": 0,
        "tle_line1": "1 66573U 25268S   25353.60898038  .00392409  00000+0  63018-2 0  9996",
        "tle_line2": "2 66573  43.0011  80.9506 0003722 102.7500 257.3776 15.50859773  5692"
      },
      "geometry": {
        "type": "Point",
        "coordinates": [
          158.93228464969405,
          42.5392893762746
        ]
      }
    },
    {
      "type": "Feature",
      "properties": {
        "norad_id": 66574,
        "name": "STARLINK-35812",
        "group": "last-30-days",
        "lat": 42.799119050730575,
        "lon": 162.536229435166,
        "alt_km": 409.4017210057691,
        "timestamp": "2025-12-19T22:41:51.094634+00:00",
        "meta_object_name": "STARLINK-35812",
        "meta_object_id": "2025-268T",
        "meta_epoch": "2025-12-19T16:09:04.084416",
        "meta_mean_motion": 15.51322291,
        "meta_eccentricity": 0.0005904,
        "meta_inclination": 43.0002,
        "meta_ra_of_asc_node": 80.57,
        "meta_arg_of_pericenter": 262.4314,
        "meta_mean_anomaly": 97.5876,
        "meta_ephemeris_type": 0,
        "meta_classification_type": "U",
        "meta_norad_cat_id": 66574,
        "meta_element_set_no": 999,
        "meta_rev_at_epoch": 570,
        "meta_bstar": 0.0067765,
        "meta_mean_motion_dot": 0.00431237,
        "meta_mean_motion_ddot": 0,
        "tle_line1": "1 66574U 25268T   25353.67296394  .00431237  00000+0  67765-2 0  9997",
        "tle_line2": "2 66574  43.0002  80.5700 0005904 262.4314  97.5876 15.51322291  5704"
      },
      "geometry": {
        "type": "Point",
        "coordinates": [
          162.536229435166,
          42.799119050730575
        ]
      }
    },
    {
      "type": "Feature",
      "properties": {
        "norad_id": 66575,
        "name": "STARLINK-35810",
        "group": "last-30-days",
        "lat": 42.92079224468451,
        "lon": 165.22342108570092,
        "alt_km": 409.22063025858824,
        "timestamp": "2025-12-19T22:41:51.094644+00:00",
        "meta_object_name": "STARLINK-35810",
        "meta_object_id": "2025-268U",
        "meta_epoch": "2025-12-19T16:08:34.544256",
        "meta_mean_motion": 15.51389706,
        "meta_eccentricity": 0.0005973,
        "meta_inclination": 43.0023,
        "meta_ra_of_asc_node": 80.5673,
        "meta_arg_of_pericenter": 261.2347,
        "meta_mean_anomaly": 98.7837,
        "meta_ephemeris_type": 0,
        "meta_classification_type": "U",
        "meta_norad_cat_id": 66575,
        "meta_element_set_no": 999,
        "meta_rev_at_epoch": 570,
        "meta_bstar": 0.0067793,
        "meta_mean_motion_dot": 0.00432528,
        "meta_mean_motion_ddot": 0,
        "tle_line1": "1 66575U 25268U   25353.67262204  .00432528  00000+0  67793-2 0  9996",
        "tle_line2": "2 66575  43.0023  80.5673 0005973 261.2347  98.7837 15.51389706  5700"
      },
      "geometry": {
        "type": "Point",
        "coordinates": [
          165.22342108570092,
          42.92079224468451
        ]
      }
    }
  ]
}